{
  "type": "FeatureCollection",
  "features": [
    {
      "type": "Feature",
      "geometry": {
        "type": "MultiPolygon",
        "coordinates": [
          [
            [
              [
                23.857101440110156,
                60.252334503640796
              ],
              [
                23.857110424437586,
                60.252335687906346
              ],
              [
                23.85711675214906,
                60.25233909179734
              ],
              [
                23.857126226613612,
                60.252339906959875
              ],
              [
                23.85712555167845,
                60.25234252660634
              ],
              [
                23.85712996665378,
                60.25234298418778
              ],
              [
                23.857136944604154,
                60.25234131306652
              ],
              [
                23.857143365954723,
                60.252337269124844
              ],
              [
                23.85714861910221,
                60.25233786077422
              ],
              [
                23.857151634196477,
                60.252336229064596
              ],
              [
                23.85715273240231,
                60.25233690557342
              ],
              [
                23.857153638875293,
                60.252335756396555
              ],
              [
                23.857154695163572,
                60.25233622082519
              ],
              [
                23.857156607574126,
                60.25233575828449
              ],
              [
                23.857158561798688,
                60.25233667287456
              ],
              [
                23.857162388508353,
                60.252335378222064
              ],
              [
                23.857164251160857,
                60.252332421102516
              ],
              [
                23.857161496843627,
                60.252334767597596
              ],
              [
                23.857163285863276,
                60.2523322443517
              ],
              [
                23.85716866602392,
                60.25233031072174
              ],
              [
                23.857164337285216,
                60.252326006348454
              ],
              [
                23.857168676933338,
                60.25232475555969
              ],
              [
                23.85716749783498,
                60.2523246289327
              ],
              [
                23.85717508794898,
                60.25231880716653
              ],
              [
                23.857176024535203,
                60.25231850028329
              ],
              [
                23.857177370775513,
                60.25231922559784
              ],
              [
                23.85717772014944,
                60.25231732013997
              ],
              [
                23.85718360608175,
                60.25231534244627
              ],
              [
                23.857176702762516,
                60.25230978109467
              ],
              [
                23.857176622772844,
                60.25230418366359
              ],
              [
                23.857165569217766,
                60.25230320913393
              ],
              [
                23.85715663413685,
                60.25230462386648
              ],
              [
                23.857155741579863,
                60.25230365692528
              ],
              [
                23.85715250626543,
                60.25230309011023
              ],
              [
                23.857153818251202,
                60.25229956308676
              ],
              [
                23.85715249425053,
                60.252298001863124
              ],
              [
                23.857155141743313,
                60.25229605810202
              ],
              [
                23.857155682043743,
                60.25229345943931
              ],
              [
                23.857148988815187,
                60.252294475967574
              ],
              [
                23.85714809055164,
                60.252293553517454
              ],
              [
                23.857141396690896,
                60.25229301396666
              ],
              [
                23.857135896029583,
                60.2522909081084
              ],
              [
                23.857133067688178,
                60.25229097661897
              ],
              [
                23.85713161521027,
                60.252289536309085
              ],
              [
                23.857126965673082,
                60.25229029239053
              ],
              [
                23.857124501993216,
                60.25228927747281
              ],
              [
                23.857119951215765,
                60.25228975032619
              ],
              [
                23.857115285099674,
                60.252291344664926
              ],
              [
                23.85711301373846,
                60.25229126264818
              ],
              [
                23.85711060081357,
                60.25229003828742
              ],
              [
                23.857108710212657,
                60.25229052977997
              ],
              [
                23.85710276360409,
                60.25228989548525
              ],
              [
                23.857099977675144,
                60.252291165108325
              ],
              [
                23.857098591339028,
                60.252290303281995
              ],
              [
                23.857096598831586,
                60.252291118798496
              ],
              [
                23.857093009223657,
                60.25229051289177
              ],
              [
                23.857089828477072,
                60.25229086813692
              ],
              [
                23.857090017679514,
                60.25229144497386
              ],
              [
                23.85708754190492,
                60.25229195735351
              ],
              [
                23.857081229826413,
                60.25229134303647
              ],
              [
                23.857081811046694,
                60.252294144647195
              ],
              [
                23.85707726835507,
                60.252296824793746
              ],
              [
                23.857070228272867,
                60.25229898712816
              ],
              [
                23.85708065334793,
                60.252301119950836
              ],
              [
                23.857083753357756,
                60.25230379902398
              ],
              [
                23.85707734209992,
                60.25230205637608
              ],
              [
                23.857062449151158,
                60.25230286941233
              ],
              [
                23.857061477324883,
                60.25230222794557
              ],
              [
                23.857056107582736,
                60.25230201402104
              ],
              [
                23.857056770638643,
                60.25230155887051
              ],
              [
                23.857052448687377,
                60.252301820610604
              ],
              [
                23.857050400149813,
                60.252300937251846
              ],
              [
                23.857043323662413,
                60.25230130700008
              ],
              [
                23.85703342382033,
                60.25229890869016
              ],
              [
                23.857028316886414,
                60.252295425507526
              ],
              [
                23.857011531767608,
                60.25229774088771
              ],
              [
                23.857003277758235,
                60.252294610406935
              ],
              [
                23.857000649342204,
                60.252294508597785
              ],
              [
                23.856995350432104,
                60.252295987154135
              ],
              [
                23.8569938653094,
                60.252298272236686
              ],
              [
                23.856988759988354,
                60.252298815815436
              ],
              [
                23.85697723747999,
                60.25229797721328
              ],
              [
                23.856972971662625,
                60.25229665263224
              ],
              [
                23.856967209407482,
                60.252296928995726
              ],
              [
                23.856963993744312,
                60.25229536532362
              ],
              [
                23.856948489732776,
                60.25229329908295
              ],
              [
                23.856945509242685,
                60.25229181585706
              ],
              [
                23.856939606334358,
                60.252293250411384
              ],
              [
                23.85693660883123,
                60.25229278042874
              ],
              [
                23.856933332456553,
                60.25229304586771
              ],
              [
                23.856928458073675,
                60.252292420412154
              ],
              [
                23.85692603628622,
                60.25229271714729
              ],
              [
                23.856918549395104,
                60.25229558042209
              ],
              [
                23.85691586591113,
                60.25230059466312
              ],
              [
                23.856921044123993,
                60.252301534056755
              ],
              [
                23.85692484199669,
                60.25230316582844
              ],
              [
                23.85692570805344,
                60.252304345615016
              ],
              [
                23.85692445262896,
                60.25230550316787
              ],
              [
                23.85691935319455,
                60.25230644055176
              ],
              [
                23.856909395754425,
                60.25230568573457
              ],
              [
                23.85690234977251,
                60.2523066436727
              ],
              [
                23.856892146190603,
                60.252306480385904
              ],
              [
                23.85689086836335,
                60.25230544610732
              ],
              [
                23.856891820502216,
                60.252305078127954
              ],
              [
                23.856895434090422,
                60.252304224689134
              ],
              [
                23.856897097514995,
                60.252304521375386
              ],
              [
                23.856895764072977,
                60.25230399916697
              ],
              [
                23.85689803725327,
                60.25230440044476
              ],
              [
                23.85689343554386,
                60.25230330393614
              ],
              [
                23.856894786176223,
                60.25230387083771
              ],
              [
                23.856890948265054,
                60.25230358768226
              ],
              [
                23.85688642245402,
                60.25230171679052
              ],
              [
                23.856878856033067,
                60.25230153352901
              ],
              [
                23.856877210020766,
                60.25230043347813
              ],
              [
                23.856875244674722,
                60.25230046724238
              ],
              [
                23.856872611245347,
                60.25229799801608
              ],
              [
                23.856883092903907,
                60.25229503025978
              ],
              [
                23.856884522347666,
                60.25229311645993
              ],
              [
                23.856882016448782,
                60.25229287076854
              ],
              [
                23.856885536868464,
                60.25228955296467
              ],
              [
                23.8568874246271,
                60.25229040272476
              ],
              [
                23.85688813993112,
                60.25228942685643
              ],
              [
                23.856885146505658,
                60.252286137901855
              ],
              [
                23.85688151885742,
                60.25228620520366
              ],
              [
                23.856874591266063,
                60.25228268651732
              ],
              [
                23.85687238399688,
                60.25228329509006
              ],
              [
                23.85687370869541,
                60.252281533348274
              ],
              [
                23.85687832951944,
                60.25228147957212
              ],
              [
                23.856878187392688,
                60.25228029328854
              ],
              [
                23.856875351199566,
                60.25227993408059
              ],
              [
                23.85686923825016,
                60.25228184188027
              ],
              [
                23.856871413573508,
                60.25228185394054
              ],
              [
                23.85686834740184,
                60.252286363702154
              ],
              [
                23.85686379113277,
                60.25228806149286
              ],
              [
                23.856857657355484,
                60.25229354347502
              ],
              [
                23.856855837853892,
                60.252294498895594
              ],
              [
                23.85685386579204,
                60.25229429539397
              ],
              [
                23.85685012774568,
                60.252297386287594
              ],
              [
                23.856843631927518,
                60.25229955628133
              ],
              [
                23.85683899510171,
                60.25229918456723
              ],
              [
                23.856837179028485,
                60.252302010058045
              ],
              [
                23.85682853845563,
                60.2523063107672
              ],
              [
                23.85680771085304,
                60.25231055018629
              ],
              [
                23.856804402862302,
                60.252309833649555
              ],
              [
                23.85680355158717,
                60.252310282316444
              ],
              [
                23.85679533717273,
                60.25231100411909
              ],
              [
                23.856776903220837,
                60.25230833910333
              ],
              [
                23.85676353141157,
                60.25231188077353
              ],
              [
                23.856754698253614,
                60.252312116855336
              ],
              [
                23.856747296913163,
                60.252311475037274
              ],
              [
                23.856731891179837,
                60.25230774648092
              ],
              [
                23.85671511651761,
                60.25230765772369
              ],
              [
                23.85669864953401,
                60.25230530281197
              ],
              [
                23.856696100796583,
                60.25230564579048
              ],
              [
                23.85669694936063,
                60.252306845798344
              ],
              [
                23.856685991124223,
                60.2523042427391
              ],
              [
                23.856681414547786,
                60.25230263219221
              ],
              [
                23.856679824012733,
                60.25230115800046
              ],
              [
                23.856680731102042,
                60.252302917900714
              ],
              [
                23.856676727076735,
                60.25230390724502
              ],
              [
                23.856673800190602,
                60.252304195552874
              ],
              [
                23.85667042313606,
                60.25230237539893
              ],
              [
                23.85667065114195,
                60.25230515962991
              ],
              [
                23.856677658743823,
                60.252309479897384
              ],
              [
                23.856678290686624,
                60.25231197767703
              ],
              [
                23.856678409510987,
                60.25230965384105
              ],
              [
                23.85668353968478,
                60.25231239732107
              ],
              [
                23.856683653677973,
                60.25231509620282
              ],
              [
                23.856679502506555,
                60.252315802750424
              ],
              [
                23.85667917874327,
                60.25231495027031
              ],
              [
                23.8566781942019,
                60.25231647510266
              ],
              [
                23.856682709529352,
                60.252318260645715
              ],
              [
                23.856686984343693,
                60.2523188393575
              ],
              [
                23.85668968228802,
                60.25231746812144
              ],
              [
                23.85669070007578,
                60.25231851915648
              ],
              [
                23.856692618093852,
                60.25231848685189
              ],
              [
                23.856690116450334,
                60.25231899437814
              ],
              [
                23.856691198639094,
                60.25232248571752
              ],
              [
                23.85669373438211,
                60.252322876649394
              ],
              [
                23.85669297663149,
                60.25232310121821
              ],
              [
                23.856695902270328,
                60.252324520062174
              ],
              [
                23.856702342541265,
                60.252324414412826
              ],
              [
                23.856701633868695,
                60.25232575403501
              ],
              [
                23.856707048178343,
                60.25232586503783
              ],
              [
                23.85670258594614,
                60.25232702077066
              ],
              [
                23.856706050411958,
                60.252327785524194
              ],
              [
                23.856709492122746,
                60.25232726809817
              ],
              [
                23.856706768318297,
                60.25232956582656
              ],
              [
                23.856714243737905,
                60.252329787798274
              ],
              [
                23.856719148709107,
                60.25233107483565
              ],
              [
                23.85672683363869,
                60.25233030695525
              ],
              [
                23.85672971711616,
                60.25233194845633
              ],
              [
                23.85673335846821,
                60.252332500178625
              ],
              [
                23.856734075570248,
                60.252333759653226
              ],
              [
                23.8567404855616,
                60.252333900390276
              ],
              [
                23.856743134441896,
                60.25233214919886
              ],
              [
                23.856742359121647,
                60.25233068879756
              ],
              [
                23.856745299325105,
                60.252330553347264
              ],
              [
                23.856745947344304,
                60.2523293312787
              ],
              [
                23.856750400005335,
                60.25232880512579
              ],
              [
                23.856745429515616,
                60.25232674739129
              ],
              [
                23.856746932098083,
                60.2523272465238
              ],
              [
                23.85674534602908,
                60.25232589610313
              ],
              [
                23.8567548584218,
                60.25232666140062
              ],
              [
                23.856768415286954,
                60.25232631981507
              ],
              [
                23.85677709681185,
                60.25232773384939
              ],
              [
                23.856775339117924,
                60.252326072770686
              ],
              [
                23.85677798399359,
                60.25232588175619
              ],
              [
                23.856777172270807,
                60.252324764236704
              ],
              [
                23.85677863863517,
                60.25232396028302
              ],
              [
                23.856782638632907,
                60.2523234921976
              ],
              [
                23.856785803972564,
                60.25232489351497
              ],
              [
                23.85678592580382,
                60.25232601005774
              ],
              [
                23.856788907672435,
                60.25232377662508
              ],
              [
                23.856797220533288,
                60.252322428946854
              ],
              [
                23.85679652868029,
                60.25232278024396
              ],
              [
                23.856800385033626,
                60.25232328561674
              ],
              [
                23.85680426872491,
                60.25232504843855
              ],
              [
                23.856804089485493,
                60.2523266118779
              ],
              [
                23.856806131998145,
                60.252328645719814
              ],
              [
                23.856808974260492,
                60.25232756073877
              ],
              [
                23.85680996854472,
                60.252328623879784
              ],
              [
                23.856818803674866,
                60.25232840472313
              ],
              [
                23.85682307260293,
                60.25233004084038
              ],
              [
                23.856824651338012,
                60.25233260932652
              ],
              [
                23.856826157362825,
                60.25233261371712
              ],
              [
                23.856822823570784,
                60.25233589785544
              ],
              [
                23.856825522311716,
                60.25233619608157
              ],
              [
                23.85682557608659,
                60.252336766607804
              ],
              [
                23.856830223362948,
                60.25233353170023
              ],
              [
                23.856837622567205,
                60.25233340957801
              ],
              [
                23.856836350980956,
                60.25233441096211
              ],
              [
                23.856840290126573,
                60.25233528599211
              ],
              [
                23.85684362674501,
                60.25233465094949
              ],
              [
                23.856856791551987,
                60.2523365282495
              ],
              [
                23.85685811626152,
                60.25233594132639
              ],
              [
                23.856855585261602,
                60.25233597365806
              ],
              [
                23.856856033613717,
                60.25233518366356
              ],
              [
                23.856866667777076,
                60.2523337769473
              ],
              [
                23.85686725842246,
                60.252334482498135
              ],
              [
                23.856869553890597,
                60.25233423608779
              ],
              [
                23.856868166968045,
                60.25233353376157
              ],
              [
                23.856869200559224,
                60.25233355134139
              ],
              [
                23.856874163699334,
                60.25233779230061
              ],
              [
                23.856876599723638,
                60.25233776939591
              ],
              [
                23.85687922141257,
                60.25234216468315
              ],
              [
                23.856880497890927,
                60.25234805338105
              ],
              [
                23.85688218954104,
                60.25234874575358
              ],
              [
                23.856883029129314,
                60.25234839086006
              ],
              [
                23.85688807426921,
                60.25235153931688
              ],
              [
                23.85689084407556,
                60.25235192354192
              ],
              [
                23.85689944372793,
                60.25235178798151
              ],
              [
                23.85690920032538,
                60.25235053407112
              ],
              [
                23.856907640168547,
                60.252348754163535
              ],
              [
                23.856904337378175,
                60.252347394219385
              ],
              [
                23.856903944936747,
                60.25234188873335
              ],
              [
                23.856915765385637,
                60.25234255130384
              ],
              [
                23.85692090241816,
                60.25233755464134
              ],
              [
                23.856930943745773,
                60.252334568141016
              ],
              [
                23.85693945371448,
                60.252333974908005
              ],
              [
                23.856941942296228,
                60.25233468615783
              ],
              [
                23.85694689915082,
                60.25233435225559
              ],
              [
                23.856944878309694,
                60.25233205426566
              ],
              [
                23.856954268103603,
                60.252332341000134
              ],
              [
                23.856950045358595,
                60.25233510364257
              ],
              [
                23.856950766226994,
                60.25233555491231
              ],
              [
                23.856956966571484,
                60.252335040338394
              ],
              [
                23.856959375389447,
                60.25233568113343
              ],
              [
                23.856962075289232,
                60.25233504163167
              ],
              [
                23.856964227846863,
                60.25233599216983
              ],
              [
                23.85696544050047,
                60.25233523524558
              ],
              [
                23.856967018668,
                60.252337510753264
              ],
              [
                23.85697020475788,
                60.25233673738919
              ],
              [
                23.85697382020424,
                60.25233709013729
              ],
              [
                23.85697471313289,
                60.252335426915955
              ],
              [
                23.856977226322645,
                60.25233657541337
              ],
              [
                23.8569831213819,
                60.25233572386705
              ],
              [
                23.856982626346255,
                60.252336454620554
              ],
              [
                23.856988026359097,
                60.25233727101038
              ],
              [
                23.8570064762429,
                60.252336138417185
              ],
              [
                23.85700268773748,
                60.252337258915176
              ],
              [
                23.857003686315878,
                60.25233830487904
              ],
              [
                23.85701827441955,
                60.252336655466166
              ],
              [
                23.857019991647615,
                60.25233727471459
              ],
              [
                23.857030547420347,
                60.252337164484416
              ],
              [
                23.857032955986032,
                60.25233841468933
              ],
              [
                23.85703356067322,
                60.25233769080769
              ],
              [
                23.857040510538408,
                60.25233728170459
              ],
              [
                23.857050501769713,
                60.252338927226894
              ],
              [
                23.85705571046785,
                60.252338593853175
              ],
              [
                23.857056969580025,
                60.25233932290171
              ],
              [
                23.857060139806535,
                60.25233889062254
              ],
              [
                23.85706257580025,
                60.25233973901013
              ],
              [
                23.857071958095982,
                60.25233955218408
              ],
              [
                23.85707869375235,
                60.2523414086247
              ],
              [
                23.857085309765324,
                60.252342028821786
              ],
              [
                23.85708765372398,
                60.252341487533705
              ],
              [
                23.85708572096433,
                60.25233895313534
              ],
              [
                23.85708695740307,
                60.25233766223604
              ],
              [
                23.857098626472,
                60.252336872469066
              ],
              [
                23.857101440110156,
                60.252334503640796
              ]
            ],
            [
              [
                23.856962960957887,
                60.252295310849775
              ],
              [
                23.85696299955906,
                60.252295540833245
              ],
              [
                23.85696268887474,
                60.252295486929256
              ],
              [
                23.856962960957887,
                60.252295310849775
              ]
            ],
            [
              [
                23.85697512809895,
                60.25233546919519
              ],
              [
                23.856975170398304,
                60.25233547857519
              ],
              [
                23.856975138205712,
                60.25233550665469
              ],
              [
                23.85697512809895,
                60.25233546919519
              ]
            ],
            [
              [
                23.857120561462445,
                60.252333696768964
              ],
              [
                23.85712089417538,
                60.25233298125648
              ],
              [
                23.85712157170081,
                60.252333073216846
              ],
              [
                23.857120561462445,
                60.252333696768964
              ]
            ],
            [
              [
                23.857086286752526,
                60.25230758566059
              ],
              [
                23.857086473951966,
                60.25230842308921
              ],
              [
                23.857086188132172,
                60.252309230341076
              ],
              [
                23.857085753126505,
                60.252309112918034
              ],
              [
                23.857086286752526,
                60.25230758566059
              ]
            ],
            [
              [
                23.857118948240185,
                60.25233492812837
              ],
              [
                23.857118401053302,
                60.25233474752282
              ],
              [
                23.857118363601685,
                60.25233411708737
              ],
              [
                23.857118948240185,
                60.25233492812837
              ]
            ],
            [
              [
                23.857170751282066,
                60.2523152059078
              ],
              [
                23.857173415238133,
                60.25231593562438
              ],
              [
                23.85717402261601,
                60.25231666209312
              ],
              [
                23.85717185711886,
                60.25231708386608
              ],
              [
                23.857170751282066,
                60.2523152059078
              ]
            ],
            [
              [
                23.857170751282066,
                60.2523152059078
              ],
              [
                23.85717107466714,
                60.25231412514986
              ],
              [
                23.8571733852356,
                60.252315912416876
              ],
              [
                23.857170751282066,
                60.2523152059078
              ]
            ],
            [
              [
                23.857108310242914,
                60.25232062113208
              ],
              [
                23.857108852479953,
                60.252321004429184
              ],
              [
                23.85710464766876,
                60.25232066628677
              ],
              [
                23.857108310242914,
                60.25232062113208
              ]
            ],
            [
              [
                23.857084473990607,
                60.25230932541869
              ],
              [
                23.85708135175279,
                60.25230984411068
              ],
              [
                23.857078520033006,
                60.25231127280756
              ],
              [
                23.857079500204165,
                60.252308431153445
              ],
              [
                23.857084393075603,
                60.2523068354293
              ],
              [
                23.85708194336231,
                60.25230909442367
              ],
              [
                23.857084473990607,
                60.25230932541869
              ]
            ],
            [
              [
                23.857118090799634,
                60.252334960653045
              ],
              [
                23.857119802231054,
                60.25233584895095
              ],
              [
                23.85711809969449,
                60.25233577320904
              ],
              [
                23.857118090799634,
                60.252334960653045
              ]
            ],
            [
              [
                23.85688966775603,
                60.25232317783512
              ],
              [
                23.856892674802015,
                60.25232244856513
              ],
              [
                23.85689119271932,
                60.252326945345345
              ],
              [
                23.85688966775603,
                60.25232317783512
              ]
            ],
            [
              [
                23.856894868889633,
                60.2523223991898
              ],
              [
                23.856898793977727,
                60.25232488676528
              ],
              [
                23.856898558092027,
                60.25232735842454
              ],
              [
                23.85689119271932,
                60.252326945345345
              ],
              [
                23.856894868889633,
                60.2523223991898
              ]
            ],
            [
              [
                23.8568954449536,
                60.25233045277946
              ],
              [
                23.856888851619832,
                60.25232799862483
              ],
              [
                23.85689119271932,
                60.252326945345345
              ],
              [
                23.8568954449536,
                60.25233045277946
              ]
            ],
            [
              [
                23.85708455752878,
                60.25230460144236
              ],
              [
                23.857084610832818,
                60.25230457714677
              ],
              [
                23.857084650056592,
                60.25230462578654
              ],
              [
                23.85708455752878,
                60.25230460144236
              ]
            ],
            [
              [
                23.856925156701827,
                60.252293382581314
              ],
              [
                23.856925781922385,
                60.25229297729561
              ],
              [
                23.856926037179576,
                60.25229335672506
              ],
              [
                23.856925156701827,
                60.252293382581314
              ]
            ],
            [
              [
                23.856923043769175,
                60.252295095596516
              ],
              [
                23.856923043493754,
                60.25229507565458
              ],
              [
                23.856923225149476,
                60.2522950760303
              ],
              [
                23.856923043769175,
                60.252295095596516
              ]
            ],
            [
              [
                23.857007637298423,
                60.252335516754876
              ],
              [
                23.857006989000517,
                60.25233516035988
              ],
              [
                23.85700802146378,
                60.25233432407356
              ],
              [
                23.857007637298423,
                60.252335516754876
              ]
            ],
            [
              [
                23.857009930226752,
                60.252333239895776
              ],
              [
                23.85701148269159,
                60.25233295285523
              ],
              [
                23.85701035547432,
                60.25233417600519
              ],
              [
                23.857009930226752,
                60.252333239895776
              ]
            ],
            [
              [
                23.85693462599233,
                60.252293173041274
              ],
              [
                23.85693432539071,
                60.25229298735024
              ],
              [
                23.856934805201654,
                60.25229293092129
              ],
              [
                23.85693462599233,
                60.252293173041274
              ]
            ],
            [
              [
                23.856934805201654,
                60.25229293092129
              ],
              [
                23.856936240562497,
                60.252293025212694
              ],
              [
                23.856935469250526,
                60.25229302409961
              ],
              [
                23.856935302891205,
                60.25229320086359
              ],
              [
                23.856934805201654,
                60.25229293092129
              ]
            ],
            [
              [
                23.856935993563944,
                60.252293097200535
              ],
              [
                23.856935896574576,
                60.25229313243929
              ],
              [
                23.856935573960858,
                60.25229303241983
              ],
              [
                23.856935993563944,
                60.252293097200535
              ]
            ],
            [
              [
                23.856858032811626,
                60.252318088155
              ],
              [
                23.856858448255455,
                60.25231743644853
              ],
              [
                23.85685913734669,
                60.252317294242864
              ],
              [
                23.856858032811626,
                60.252318088155
              ]
            ],
            [
              [
                23.857149861637883,
                60.25233352552294
              ],
              [
                23.857150484943368,
                60.25233391690014
              ],
              [
                23.857149543972884,
                60.252334057764685
              ],
              [
                23.857149861637883,
                60.25233352552294
              ]
            ],
            [
              [
                23.856866878226423,
                60.25230820978773
              ],
              [
                23.856868839273005,
                60.25230761919193
              ],
              [
                23.856870134285085,
                60.25230829839232
              ],
              [
                23.856867481291445,
                60.252308928666594
              ],
              [
                23.856866878226423,
                60.25230820978773
              ]
            ],
            [
              [
                23.856872754496038,
                60.25230523447207
              ],
              [
                23.85687762889531,
                60.25230561872597
              ],
              [
                23.856879924238495,
                60.25230598983664
              ],
              [
                23.856870324015393,
                60.25230647723456
              ],
              [
                23.856872754496038,
                60.25230523447207
              ]
            ],
            [
              [
                23.856864814638506,
                60.252293204576354
              ],
              [
                23.856862851767385,
                60.252292636295714
              ],
              [
                23.856865570591772,
                60.25229119987162
              ],
              [
                23.856864814638506,
                60.252293204576354
              ]
            ],
            [
              [
                23.85688108706852,
                60.25228627952723
              ],
              [
                23.856881011550207,
                60.25228609487119
              ],
              [
                23.856881516554118,
                60.252286205600136
              ],
              [
                23.85688108706852,
                60.25228627952723
              ]
            ],
            [
              [
                23.85687759308211,
                60.25228076191146
              ],
              [
                23.856877440297083,
                60.252280722034726
              ],
              [
                23.856877650935793,
                60.25228074454478
              ],
              [
                23.85687759308211,
                60.25228076191146
              ]
            ],
            [
              [
                23.856828341957126,
                60.25233303636926
              ],
              [
                23.85682868441184,
                60.252333428429424
              ],
              [
                23.856827052938907,
                60.25233419568534
              ],
              [
                23.856828341957126,
                60.25233303636926
              ]
            ],
            [
              [
                23.85682219848296,
                60.25231585125886
              ],
              [
                23.856822394682442,
                60.25231602194672
              ],
              [
                23.856822001455328,
                60.25231598177916
              ],
              [
                23.85682219848296,
                60.25231585125886
              ]
            ],
            [
              [
                23.8568240846829,
                60.25231333309212
              ],
              [
                23.856827644390258,
                60.252312845346566
              ],
              [
                23.85682945009692,
                60.25231273790576
              ],
              [
                23.85682810886199,
                60.252313634969326
              ],
              [
                23.85682293457344,
                60.252314084282645
              ],
              [
                23.8568240846829,
                60.25231333309212
              ]
            ],
            [
              [
                23.85667318388768,
                60.252304906221816
              ],
              [
                23.856673784191905,
                60.252304285233755
              ],
              [
                23.856676358270146,
                60.25230411733982
              ],
              [
                23.856676382316557,
                60.25230436971727
              ],
              [
                23.85667318388768,
                60.252304906221816
              ]
            ],
            [
              [
                23.856790017554623,
                60.25231803229381
              ],
              [
                23.856788421597194,
                60.25231863218256
              ],
              [
                23.85678869847889,
                60.25231799903651
              ],
              [
                23.856790017554623,
                60.25231803229381
              ]
            ],
            [
              [
                23.85680539386872,
                60.25232520691339
              ],
              [
                23.856805067444075,
                60.25232419493415
              ],
              [
                23.856805892646236,
                60.25232547879115
              ],
              [
                23.85680539386872,
                60.25232520691339
              ]
            ],
            [
              [
                23.856805987823087,
                60.25232644617159
              ],
              [
                23.856805688479145,
                60.25232676467456
              ],
              [
                23.856805599305275,
                60.25232617301565
              ],
              [
                23.856805987823087,
                60.25232644617159
              ]
            ],
            [
              [
                23.856862618683007,
                60.25229179969148
              ],
              [
                23.85686284808726,
                60.252292003787296
              ],
              [
                23.856862639704417,
                60.25229220622785
              ],
              [
                23.856862618683007,
                60.25229179969148
              ]
            ],
            [
              [
                23.85669447740389,
                60.25232353756844
              ],
              [
                23.856694149887304,
                60.25232299773477
              ],
              [
                23.85669606161824,
                60.25232386390387
              ],
              [
                23.85669447740389,
                60.25232353756844
              ]
            ],
            [
              [
                23.8566839146096,
                60.25231502697252
              ],
              [
                23.856683826683586,
                60.252315043442316
              ],
              [
                23.856683931462882,
                60.25231499232877
              ],
              [
                23.8566839146096,
                60.25231502697252
              ]
            ],
            [
              [
                23.856681503000708,
                60.25231745835028
              ],
              [
                23.856680752411645,
                60.25231687782243
              ],
              [
                23.856681912570828,
                60.25231706411013
              ],
              [
                23.856681503000708,
                60.25231745835028
              ]
            ],
            [
              [
                23.856734826614698,
                60.25231456070807
              ],
              [
                23.85673467519826,
                60.25231519336831
              ],
              [
                23.856734525791953,
                60.252314598069525
              ],
              [
                23.856734826614698,
                60.25231456070807
              ]
            ],
            [
              [
                23.856763665447556,
                60.25231186921568
              ],
              [
                23.856765449986902,
                60.252311514286156
              ],
              [
                23.856765480265846,
                60.25231151320016
              ],
              [
                23.85676416390082,
                60.25231186035641
              ],
              [
                23.856763665447556,
                60.25231186921568
              ]
            ]
          ],
          [
            [
              [
                23.85682871470812,
                60.25233478489983
              ],
              [
                23.856828718690647,
                60.252334786114325
              ],
              [
                23.856828830892372,
                60.25233470706713
              ],
              [
                23.85682871470812,
                60.25233478489983
              ]
            ]
          ],
          [
            [
              [
                23.85682591738711,
                60.25231318123161
              ],
              [
                23.8568259054176,
                60.25231318851549
              ],
              [
                23.85682591204774,
                60.25231318886104
              ],
              [
                23.85682591738711,
                60.25231318123161
              ]
            ]
          ],
          [
            [
              [
                23.856764994056267,
                60.25231161752189
              ],
              [
                23.85676499839955,
                60.25231161649838
              ],
              [
                23.856764997074528,
                60.25231161637027
              ],
              [
                23.856764994056267,
                60.25231161752189
              ]
            ]
          ],
          [
            [
              [
                23.856802678502607,
                60.25231021640259
              ],
              [
                23.856802678638523,
                60.25231021647352
              ],
              [
                23.856802687827198,
                60.25231019765883
              ],
              [
                23.856802678502607,
                60.25231021640259
              ]
            ]
          ],
          [
            [
              [
                23.856724075970998,
                60.25230768810067
              ],
              [
                23.856724047062624,
                60.2523076861652
              ],
              [
                23.8567240473963,
                60.252307686312285
              ],
              [
                23.856724075970998,
                60.25230768810067
              ]
            ]
          ],
          [
            [
              [
                23.856673863324843,
                60.25230466878359
              ],
              [
                23.8566738640435,
                60.25230466959272
              ],
              [
                23.856673864746586,
                60.25230466918478
              ],
              [
                23.856673863324843,
                60.25230466878359
              ]
            ]
          ],
          [
            [
              [
                23.856874064739735,
                60.25227997546525
              ],
              [
                23.85687403953363,
                60.25227999496427
              ],
              [
                23.85687406672786,
                60.25227997550988
              ],
              [
                23.856874064739735,
                60.25227997546525
              ]
            ]
          ]
        ]
      },
      "properties": {
        "source": "Torhola.glb",
        "projection_plane": "xz",
        "simplify_tolerance": 0.05,
        "note": "Local model coordinates \u2014 georeference manually"
      }
    }
  ]
}